STARLINK-2228           
1 48576U 21041Z   26068.81189104 -.00001021  00000+0 -22343-4 0  9995
2 48576  53.1600 100.4463 0001441  69.1924 290.9231 15.30193288265667
2025-155V               
1 64895U 25155V   26068.85787115  .00013705  00000+0  51002-3 0  9990
2 64895  97.4485  37.2490 0008035 152.8264 207.3397 15.27583301 65579
