[{"OBJECT_NAME":"STARLINK-2228","OBJECT_ID":"2021-041Z","EPOCH":"2026-03-09T19:29:07.386720","MEAN_MOTION":15.30193288,"ECCENTRICITY":0.00014412,"INCLINATION":53.16,"RA_OF_ASC_NODE":100.4463,"ARG_OF_PERICENTER":69.1924,"MEAN_ANOMALY":290.9231,"EPHEMERIS_TYPE":0,"CLASSIFICATION_TYPE":"U","NORAD_CAT_ID":48576,"ELEMENT_SET_NO":999,"REV_AT_EPOCH":26566,"BSTAR":-2.2342511e-5,"MEAN_MOTION_DOT":-1.021e-5,"MEAN_MOTION_DDOT":0},{"OBJECT_NAME":"OBJECT V","OBJECT_ID":"2025-155V","EPOCH":"2026-03-09T20:35:20.067360","MEAN_MOTION":15.27583301,"ECCENTRICITY":0.00080353,"INCLINATION":97.4485,"RA_OF_ASC_NODE":37.249,"ARG_OF_PERICENTER":152.8264,"MEAN_ANOMALY":207.3397,"EPHEMERIS_TYPE":0,"CLASSIFICATION_TYPE":"U","NORAD_CAT_ID":64895,"ELEMENT_SET_NO":999,"REV_AT_EPOCH":6557,"BSTAR":0.00051002361,"MEAN_MOTION_DOT":0.00013705,"MEAN_MOTION_DDOT":0}]
